{"type": "FeatureCollection", "features": [ {"type": "Feature", "properties": {"norad_id": 34117, "name": "COSMOS 2251 DEB", "group": "cosmos-2251-debris", "lat": 67.35583170656663, "lon": 34.834705585549585, "alt_km": 712.9157705424677, "timestamp": "2025-12-08T13:49:32.187856+00:00", "meta": {"OBJECT_NAME": "COSMOS 2251 DEB", "OBJECT_ID": "1993-036KN", "EPOCH": "2025-12-08T06:49:04.870560", "MEAN_MOTION": 14.39983754, "ECCENTRICITY": 0.00544181, "INCLINATION": 74.0403, "RA_OF_ASC_NODE": 352.0605, "ARG_OF_PERICENTER": 69.7657, "MEAN_ANOMALY": 290.9337, "EPHEMERIS_TYPE": 0, "CLASSIFICATION_TYPE": "U", "NORAD_CAT_ID": 34117, "ELEMENT_SET_NO": 999, "REV_AT_EPOCH": 88059, "BSTAR": 0.00097747245, "MEAN_MOTION_DOT": 3.107e-05, "MEAN_MOTION_DDOT": 0}, "tle": {"line1": "1 34117U 93036KN  25342.28408415  .00003107  00000+0  97747-3 0  9992", "line2": "2 34117  74.0403 352.0605 0054418  69.7657 290.9337 14.39983754880595"}}, "geometry": {"type": "Point", "coordinates": [34.834705585549585, 67.35583170656663]}}, {"type": "Feature", "properties": {"norad_id": 34118, "name": "COSMOS 2251 DEB", "group": "cosmos-2251-debris", "lat": 54.75386675962451, "lon": -78.23330081558845, "alt_km": 545.0026010088986, "timestamp": "2025-12-08T13:49:32.187867+00:00", "meta": {"OBJECT_NAME": "COSMOS 2251 DEB", "OBJECT_ID": "1993-036KP", "EPOCH": "2025-12-08T06:14:29.101056", "MEAN_MOTION": 14.93667332, "ECCENTRICITY": 0.00599686, "INCLINATION": 73.9526, "RA_OF_ASC_NODE": 258.3679, "ARG_OF_PERICENTER": 89.8275, "MEAN_ANOMALY": 70.2426, "EPHEMERIS_TYPE": 0, "CLASSIFICATION_TYPE": "U", "NORAD_CAT_ID": 34118, "ELEMENT_SET_NO": 999, "REV_AT_EPOCH": 89109, "BSTAR": 0.0023652402, "MEAN_MOTION_DOT": 0.00025965, "MEAN_MOTION_DDOT": 0}, "tle": {"line1": "1 34118U 93036KP  25342.26005904  .00025965  00000+0  23652-2 0  9996", "line2": "2 34118  73.9526 258.3679 0059968  89.8275  70.2426 14.93667332891099"}}, "geometry": {"type": "Point", "coordinates": [-78.23330081558845, 54.75386675962451]}}, {"type": "Feature", "properties": {"norad_id": 34120, "name": "COSMOS 2251 DEB", "group": "cosmos-2251-debris", "lat": 73.72228355697118, "lon": -36.03600854649268, "alt_km": 789.9473156437161, "timestamp": "2025-12-08T13:49:32.187877+00:00", "meta": {"OBJECT_NAME": "COSMOS 2251 DEB", "OBJECT_ID": "1993-036KR", "EPOCH": "2025-12-08T03:39:32.595840", "MEAN_MOTION": 13.98675508, "ECCENTRICITY": 0.01817529, "INCLINATION": 73.9918, "RA_OF_ASC_NODE": 224.166, "ARG_OF_PERICENTER": 52.8818, "MEAN_ANOMALY": 66.5694, "EPHEMERIS_TYPE": 0, "CLASSIFICATION_TYPE": "U", "NORAD_CAT_ID": 34120, "ELEMENT_SET_NO": 999, "REV_AT_EPOCH": 85916, "BSTAR": 0.00054041601, "MEAN_MOTION_DOT": 8.71e-06, "MEAN_MOTION_DDOT": 0}, "tle": {"line1": "1 34120U 93036KR  25342.15246060  .00000871  00000+0  54042-3 0  9994", "line2": "2 34120  73.9918 224.1660 0181752  52.8818  66.5694 13.98675508859163"}}, "geometry": {"type": "Point", "coordinates": [-36.03600854649268, 73.72228355697118]}}, {"type": "Feature", "properties": {"norad_id": 34121, "name": "COSMOS 2251 DEB", "group": "cosmos-2251-debris", "lat": 45.759022757089774, "lon": 121.44940279039955, "alt_km": 936.683028681743, "timestamp": "2025-12-08T13:49:32.187888+00:00", "meta": {"OBJECT_NAME": "COSMOS 2251 DEB", "OBJECT_ID": "1993-036KS", "EPOCH": "2025-12-07T19:11:12.802272", "MEAN_MOTION": 13.91903838, "ECCENTRICITY": 0.02400031, "INCLINATION": 73.993, "RA_OF_ASC_NODE": 105.6362, "ARG_OF_PERICENTER": 312.1388, "MEAN_ANOMALY": 163.3837, "EPHEMERIS_TYPE": 0, "CLASSIFICATION_TYPE": "U", "NORAD_CAT_ID": 34121, "ELEMENT_SET_NO": 999, "REV_AT_EPOCH": 85056, "BSTAR": 0.0017689349, "MEAN_MOTION_DOT": 2.827e-05, "MEAN_MOTION_DDOT": 0}, "tle": {"line1": "1 34121U 93036KS  25341.79945373  .00002827  00000+0  17689-2 0  9995", "line2": "2 34121  73.9930 105.6362 0240003 312.1388 163.3837 13.91903838850562"}}, "geometry": {"type": "Point", "coordinates": [121.44940279039955, 45.759022757089774]}}, {"type": "Feature", "properties": {"norad_id": 34122, "name": "COSMOS 2251 DEB", "group": "cosmos-2251-debris", "lat": -71.07532415906502, "lon": 70.03942429895065, "alt_km": 698.4234663008065, "timestamp": "2025-12-08T13:49:32.187898+00:00", "meta": {"OBJECT_NAME": "COSMOS 2251 DEB", "OBJECT_ID": "1993-036KT", "EPOCH": "2025-12-08T03:29:52.727424", "MEAN_MOTION": 14.64956914, "ECCENTRICITY": 0.00840839, "INCLINATION": 74.0363, "RA_OF_ASC_NODE": 127.4716, "ARG_OF_PERICENTER": 25.6509, "MEAN_ANOMALY": 147.0924, "EPHEMERIS_TYPE": 0, "CLASSIFICATION_TYPE": "U", "NORAD_CAT_ID": 34122, "ELEMENT_SET_NO": 999, "REV_AT_EPOCH": 88617, "BSTAR": 0.0013853631, "MEAN_MOTION_DOT": 7.789e-05, "MEAN_MOTION_DDOT": 0}, "tle": {"line1": "1 34122U 93036KT  25342.14574916  .00007789  00000+0  13854-2 0  9999", "line2": "2 34122  74.0363 127.4716 0084083  25.6509 147.0924 14.64956914886171"}}, "geometry": {"type": "Point", "coordinates": [70.03942429895065, -71.07532415906502]}}, {"type": "Feature", "properties": {"norad_id": 34127, "name": "COSMOS 2251 DEB", "group": "cosmos-2251-debris", "lat": -24.018587836956076, "lon": 44.12924013452614, "alt_km": 780.6263709677269, "timestamp": "2025-12-08T13:49:32.187908+00:00", "meta": {"OBJECT_NAME": "COSMOS 2251 DEB", "OBJECT_ID": "1993-036KY", "EPOCH": "2025-12-08T05:49:20.036064", "MEAN_MOTION": 14.31473066, "ECCENTRICITY": 0.01147547, "INCLINATION": 74.1787, "RA_OF_ASC_NODE": 51.9907, "ARG_OF_PERICENTER": 253.0347, "MEAN_ANOMALY": 162.9421, "EPHEMERIS_TYPE": 0, "CLASSIFICATION_TYPE": "U", "NORAD_CAT_ID": 34127, "ELEMENT_SET_NO": 999, "REV_AT_EPOCH": 86707, "BSTAR": 0.0026707799, "MEAN_MOTION_DOT": 7.606e-05, "MEAN_MOTION_DDOT": 0}, "tle": {"line1": "1 34127U 93036KY  25342.24259301  .00007606  00000+0  26708-2 0  9993", "line2": "2 34127  74.1787  51.9907 0114754 253.0347 162.9421 14.31473066867078"}}, "geometry": {"type": "Point", "coordinates": [44.12924013452614, -24.018587836956076]}}, {"type": "Feature", "properties": {"norad_id": 34128, "name": "COSMOS 2251 DEB", "group": "cosmos-2251-debris", "lat": -37.48572669293214, "lon": 137.9299183932026, "alt_km": 587.5886259121544, "timestamp": "2025-12-08T13:49:32.187919+00:00", "meta": {"OBJECT_NAME": "COSMOS 2251 DEB", "OBJECT_ID": "1993-036KZ", "EPOCH": "2025-12-08T06:59:21.842592", "MEAN_MOTION": 15.00830144, "ECCENTRICITY": 0.00262278, "INCLINATION": 74.0008, "RA_OF_ASC_NODE": 305.7984, "ARG_OF_PERICENTER": 58.5954, "MEAN_ANOMALY": 62.1387, "EPHEMERIS_TYPE": 0, "CLASSIFICATION_TYPE": "U", "NORAD_CAT_ID": 34128, "ELEMENT_SET_NO": 999, "REV_AT_EPOCH": 89100, "BSTAR": 0.0023827979, "MEAN_MOTION_DOT": 0.00030604, "MEAN_MOTION_DDOT": 0}, "tle": {"line1": "1 34128U 93036KZ  25342.29122503  .00030604  00000+0  23828-2 0  9996", "line2": "2 34128  74.0008 305.7984 0026227  58.5954  62.1387 15.00830144891001"}}, "geometry": {"type": "Point", "coordinates": [137.9299183932026, -37.48572669293214]}}, {"type": "Feature", "properties": {"norad_id": 34129, "name": "COSMOS 2251 DEB", "group": "cosmos-2251-debris", "lat": 23.018858881337394, "lon": 160.68728051017746, "alt_km": 640.4844407549808, "timestamp": "2025-12-08T13:49:32.187929+00:00", "meta": {"OBJECT_NAME": "COSMOS 2251 DEB", "OBJECT_ID": "1993-036LA", "EPOCH": "2025-12-08T01:44:05.977824", "MEAN_MOTION": 14.75610462, "ECCENTRICITY": 0.00327731, "INCLINATION": 74.0351, "RA_OF_ASC_NODE": 348.6584, "ARG_OF_PERICENTER": 71.6884, "MEAN_ANOMALY": 288.785, "EPHEMERIS_TYPE": 0, "CLASSIFICATION_TYPE": "U", "NORAD_CAT_ID": 34129, "ELEMENT_SET_NO": 999, "REV_AT_EPOCH": 61229, "BSTAR": 0.0015543105, "MEAN_MOTION_DOT": 0.00010683, "MEAN_MOTION_DDOT": 0}, "tle": {"line1": "1 34129U 93036LA  25342.07229141  .00010683  00000+0  15543-2 0  9999", "line2": "2 34129  74.0351 348.6584 0032773  71.6884 288.7850 14.75610462612299"}}, "geometry": {"type": "Point", "coordinates": [160.68728051017746, 23.018858881337394]}}, {"type": "Feature", "properties": {"norad_id": 34136, "name": "COSMOS 2251 DEB", "group": "cosmos-2251-debris", "lat": -60.912059760335545, "lon": -98.15378567709118, "alt_km": 615.3114987283607, "timestamp": "2025-12-08T13:49:32.187939+00:00", "meta": {"OBJECT_NAME": "COSMOS 2251 DEB", "OBJECT_ID": "1993-036LH", "EPOCH": "2025-12-08T06:33:52.896960", "MEAN_MOTION": 14.80029185, "ECCENTRICITY": 0.00861561, "INCLINATION": 74.0211, "RA_OF_ASC_NODE": 51.4407, "ARG_OF_PERICENTER": 175.5954, "MEAN_ANOMALY": 257.514, "EPHEMERIS_TYPE": 0, "CLASSIFICATION_TYPE": "U", "NORAD_CAT_ID": 34136, "ELEMENT_SET_NO": 999, "REV_AT_EPOCH": 89944, "BSTAR": 0.00070834806, "MEAN_MOTION_DOT": 5.681e-05, "MEAN_MOTION_DDOT": 0}, "tle": {"line1": "1 34136U 93036LH  25342.27352890  .00005681  00000+0  70835-3 0  9995", "line2": "2 34136  74.0211  51.4407 0086156 175.5954 257.5140 14.80029185899443"}}, "geometry": {"type": "Point", "coordinates": [-98.15378567709118, -60.912059760335545]}}, {"type": "Feature", "properties": {"norad_id": 34139, "name": "COSMOS 2251 DEB", "group": "cosmos-2251-debris", "lat": -71.10452687449482, "lon": -154.78014601666155, "alt_km": 685.4623699225394, "timestamp": "2025-12-08T13:49:32.187950+00:00", "meta": {"OBJECT_NAME": "COSMOS 2251 DEB", "OBJECT_ID": "1993-036LL", "EPOCH": "2025-12-08T05:00:14.472576", "MEAN_MOTION": 14.58964393, "ECCENTRICITY": 0.00425315, "INCLINATION": 74.0313, "RA_OF_ASC_NODE": 262.6982, "ARG_OF_PERICENTER": 334.5584, "MEAN_ANOMALY": 176.3061, "EPHEMERIS_TYPE": 0, "CLASSIFICATION_TYPE": "U", "NORAD_CAT_ID": 34139, "ELEMENT_SET_NO": 999, "REV_AT_EPOCH": 88083, "BSTAR": 0.002038158, "MEAN_MOTION_DOT": 9.667e-05, "MEAN_MOTION_DDOT": 0}, "tle": {"line1": "1 34139U 93036LL  25342.20850084  .00009667  00000+0  20382-2 0  9998", "line2": "2 34139  74.0313 262.6982 0042531 334.5584 176.3061 14.58964393880835"}}, "geometry": {"type": "Point", "coordinates": [-154.78014601666155, -71.10452687449482]}}]}